0 COSMOS 2211
1 22182U 92068A   13281.46303292  .00000025  00000-0  78914-4 0  6856
2 22182 082.5980 041.3102 0006620 248.7215 178.7237 12.63962922967394
0 COSMOS 2211
1 22182U 92068A   13283.84861384  .00000002  00000-0 -47223-4 0  6867
2 22182 082.5985 039.7870 0006718 242.8474 234.2017 12.63963205967694
0 COSMOS 2211
1 22182U 92068A   13285.98650730  .00000011  00000-0  34834-5 0  6870
2 22182 082.5989 038.4221 0006771 237.3666 242.8092 12.63963179967963
0 COSMOS 2211
1 22182U 92068A   13288.42895172  .00000032  00000-0  11457-3 0  6881
2 22182 082.5992 036.8630 0006881 231.5398 196.8582 12.63962944968279
0 COSMOS 2211
1 22182U 92068A   13290.74332890  .00000055  00000-0  24285-3 0  6891
2 22182 082.5991 035.3859 0006965 225.9026 288.2679 12.63962925968567
0 COSMOS 2211
1 22182U 92068A   13292.79267185  .00000053  00000-0  23069-3 0  6901
2 22182 082.5990 034.0778 0007037 220.8970 253.6710 12.63963104968826
0 COSMOS 2211
1 22182U 92068A   13295.39460781  .00000016  00000-0  27874-4 0  6916
2 22182 082.5989 032.4168 0007130 214.6614 213.4936 12.63963380969156
